[{"OBJECT_NAME":"ION SCV-008","OBJECT_ID":"2023-001AU","EPOCH":"2026-03-09T19:46:58.662912","MEAN_MOTION":15.2722664,"ECCENTRICITY":0.00151921,"INCLINATION":97.5676,"RA_OF_ASC_NODE":163.606,"ARG_OF_PERICENTER":8.542,"MEAN_ANOMALY":351.6074,"EPHEMERIS_TYPE":0,"CLASSIFICATION_TYPE":"U","NORAD_CAT_ID":55051,"ELEMENT_SET_NO":999,"REV_AT_EPOCH":17616,"BSTAR":0.00031422806,"MEAN_MOTION_DOT":8.336e-5,"MEAN_MOTION_DDOT":0},{"OBJECT_NAME":"STARLINK-34731","OBJECT_ID":"2025-161Q","EPOCH":"2026-03-09T21:54:52.015392","MEAN_MOTION":15.30197953,"ECCENTRICITY":0.00024547,"INCLINATION":53.1578,"RA_OF_ASC_NODE":293.196,"ARG_OF_PERICENTER":179.6153,"MEAN_ANOMALY":180.485,"EPHEMERIS_TYPE":0,"CLASSIFICATION_TYPE":"U","NORAD_CAT_ID":65029,"ELEMENT_SET_NO":999,"REV_AT_EPOCH":3536,"BSTAR":0.00084822024,"MEAN_MOTION_DOT":0.00024846,"MEAN_MOTION_DDOT":0}]
